GLOBALSTAR M067         
1 32263U 07048A   25021.55704897 -.00000060  00000+0  28096-3 0  9994
2 32263  51.9729 104.9824 0001132  72.2958  34.6059 12.40665004791281
GLOBALSTAR M070         
1 32264U 07048B   25021.56574420 -.00000074  00000+0  16786-3 0  9991
2 32264  51.9720 215.1704 0001186  95.2558 300.7072 12.62310941795158
GLOBALSTAR M066         
1 32265U 07048C   25021.59774869 -.00000100  00000+0 -16193-4 0  9998
2 32265  51.9674  91.1860 0000858 137.3336  10.6940 12.42169590797163
GLOBALSTAR M068         
1 32266U 07048D   25021.42713057 -.00000101  00000+0  15870-4 0  9994
2 32266  51.9900  29.6268 0001085 160.5481 347.1947 12.62813506799012
GLOBALSTAR M079         
1 37188U 10054A   25021.52270802 -.00000082  00000+0  12082-3 0  9999
2 37188  52.0012 226.2590 0000950  66.2476 329.4532 12.62270240657934
GLOBALSTAR M074         
1 37189U 10054B   25021.54520288 -.00000084  00000+0  10949-3 0  9990
2 37189  51.9987 225.5353 0001220  82.8635 295.1017 12.62262177658540
GLOBALSTAR M076         
1 37190U 10054C   25021.57449149 -.00000071  00000+0  18491-3 0  9997
2 37190  52.0001 225.6029 0001246  67.9522 323.8981 12.62276843658262
GLOBALSTAR M077         
1 37191U 10054D   25021.39987206 -.00000079  00000+0  13670-3 0  9991
2 37191  52.0048 182.9487 0001084  96.1444 280.5257 12.62270118658617
